CCSDS_OMM_VERS = 2.0
CREATION_DATE  = 
ORIGINATOR     = 

OBJECT_NAME    = ISS (ZARYA)
OBJECT_ID      = 1998-067A
CENTER_NAME    = EARTH
REF_FRAME      = TEME
TIME_SYSTEM    = UTC
MEAN_ELEMENT_THEORY = SGP/SGP4

EPOCH          = 2026-02-28T09:55:22.865376
MEAN_MOTION    = 15.48358440
ECCENTRICITY   = .0008299
INCLINATION    = 51.6325
RA_OF_ASC_NODE = 118.2146
ARG_OF_PERICENTER = 142.1568
MEAN_ANOMALY   = 218.0005

EPHEMERIS_TYPE = 0
CLASSIFICATION_TYPE = U
NORAD_CAT_ID   = 25544
ELEMENT_SET_NO = 999
REV_AT_EPOCH   = 55489
BSTAR          = .18003E-3
MEAN_MOTION_DOT = .927E-4
MEAN_MOTION_DDOT = 0

CCSDS_OMM_VERS = 2.0
CREATION_DATE  = 
ORIGINATOR     = 

OBJECT_NAME    = POISK
OBJECT_ID      = 2009-060A
CENTER_NAME    = EARTH
REF_FRAME      = TEME
TIME_SYSTEM    = UTC
MEAN_ELEMENT_THEORY = SGP/SGP4

EPOCH          = 2026-02-28T09:55:22.865376
MEAN_MOTION    = 15.48358440
ECCENTRICITY   = .0008299
INCLINATION    = 51.6325
RA_OF_ASC_NODE = 118.2146
ARG_OF_PERICENTER = 142.1568
MEAN_ANOMALY   = 218.0005

EPHEMERIS_TYPE = 0
CLASSIFICATION_TYPE = U
NORAD_CAT_ID   = 36086
ELEMENT_SET_NO = 999
REV_AT_EPOCH   = 55458
BSTAR          = .18003E-3
MEAN_MOTION_DOT = .927E-4
MEAN_MOTION_DDOT = 0

CCSDS_OMM_VERS = 2.0
CREATION_DATE  = 
ORIGINATOR     = 

OBJECT_NAME    = CSS (TIANHE)
OBJECT_ID      = 2021-035A
CENTER_NAME    = EARTH
REF_FRAME      = TEME
TIME_SYSTEM    = UTC
MEAN_ELEMENT_THEORY = SGP/SGP4

EPOCH          = 2026-02-28T05:50:22.962912
MEAN_MOTION    = 15.60219288
ECCENTRICITY   = .0006303
INCLINATION    = 41.4655
RA_OF_ASC_NODE = 265.6207
ARG_OF_PERICENTER = 213.2010
MEAN_ANOMALY   = 146.8433

EPHEMERIS_TYPE = 0
CLASSIFICATION_TYPE = U
NORAD_CAT_ID   = 48274
ELEMENT_SET_NO = 999
REV_AT_EPOCH   = 27613
BSTAR          = .27649E-3
MEAN_MOTION_DOT = .22938E-3
MEAN_MOTION_DDOT = 0

CCSDS_OMM_VERS = 2.0
CREATION_DATE  = 
ORIGINATOR     = 

OBJECT_NAME    = ISS (NAUKA)
OBJECT_ID      = 2021-066A
CENTER_NAME    = EARTH
REF_FRAME      = TEME
TIME_SYSTEM    = UTC
MEAN_ELEMENT_THEORY = SGP/SGP4

EPOCH          = 2026-02-28T09:55:22.865376
MEAN_MOTION    = 15.48358440
ECCENTRICITY   = .0008299
INCLINATION    = 51.6325
RA_OF_ASC_NODE = 118.2146
ARG_OF_PERICENTER = 142.1568
MEAN_ANOMALY   = 218.0005

EPHEMERIS_TYPE = 0
CLASSIFICATION_TYPE = U
NORAD_CAT_ID   = 49044
ELEMENT_SET_NO = 999
REV_AT_EPOCH   = 55459
BSTAR          = .18003E-3
MEAN_MOTION_DOT = .927E-4
MEAN_MOTION_DDOT = 0

CCSDS_OMM_VERS = 2.0
CREATION_DATE  = 
ORIGINATOR     = 

OBJECT_NAME    = CSS (WENTIAN)
OBJECT_ID      = 2022-085A
CENTER_NAME    = EARTH
REF_FRAME      = TEME
TIME_SYSTEM    = UTC
MEAN_ELEMENT_THEORY = SGP/SGP4

EPOCH          = 2026-02-28T05:50:22.962912
MEAN_MOTION    = 15.60219288
ECCENTRICITY   = .0006303
INCLINATION    = 41.4655
RA_OF_ASC_NODE = 265.6207
ARG_OF_PERICENTER = 213.2010
MEAN_ANOMALY   = 146.8433

EPHEMERIS_TYPE = 0
CLASSIFICATION_TYPE = U
NORAD_CAT_ID   = 53239
ELEMENT_SET_NO = 999
REV_AT_EPOCH   = 27572
BSTAR          = .27649E-3
MEAN_MOTION_DOT = .22938E-3
MEAN_MOTION_DDOT = 0

CCSDS_OMM_VERS = 2.0
CREATION_DATE  = 
ORIGINATOR     = 

OBJECT_NAME    = CSS (MENGTIAN)
OBJECT_ID      = 2022-143A
CENTER_NAME    = EARTH
REF_FRAME      = TEME
TIME_SYSTEM    = UTC
MEAN_ELEMENT_THEORY = SGP/SGP4

EPOCH          = 2026-02-28T05:50:22.962912
MEAN_MOTION    = 15.60219288
ECCENTRICITY   = .0006303
INCLINATION    = 41.4655
RA_OF_ASC_NODE = 265.6207
ARG_OF_PERICENTER = 213.2010
MEAN_ANOMALY   = 146.8433

EPHEMERIS_TYPE = 0
CLASSIFICATION_TYPE = U
NORAD_CAT_ID   = 54216
ELEMENT_SET_NO = 999
REV_AT_EPOCH   = 27569
BSTAR          = .27649E-3
MEAN_MOTION_DOT = .22938E-3
MEAN_MOTION_DDOT = 0

CCSDS_OMM_VERS = 2.0
CREATION_DATE  = 
ORIGINATOR     = 

OBJECT_NAME    = PROGRESS-MS 31
OBJECT_ID      = 2025-146A
CENTER_NAME    = EARTH
REF_FRAME      = TEME
TIME_SYSTEM    = UTC
MEAN_ELEMENT_THEORY = SGP/SGP4

EPOCH          = 2026-02-28T09:55:22.865376
MEAN_MOTION    = 15.48358440
ECCENTRICITY   = .0008299
INCLINATION    = 51.6325
RA_OF_ASC_NODE = 118.2146
ARG_OF_PERICENTER = 142.1568
MEAN_ANOMALY   = 218.0005

EPHEMERIS_TYPE = 0
CLASSIFICATION_TYPE = U
NORAD_CAT_ID   = 64751
ELEMENT_SET_NO = 999
REV_AT_EPOCH   = 55460
BSTAR          = .18003E-3
MEAN_MOTION_DOT = .927E-4
MEAN_MOTION_DDOT = 0

CCSDS_OMM_VERS = 2.0
CREATION_DATE  = 
ORIGINATOR     = 

OBJECT_NAME    = TIANZHOU-9
OBJECT_ID      = 2025-149A
CENTER_NAME    = EARTH
REF_FRAME      = TEME
TIME_SYSTEM    = UTC
MEAN_ELEMENT_THEORY = SGP/SGP4

EPOCH          = 2026-02-28T05:50:22.962912
MEAN_MOTION    = 15.60219288
ECCENTRICITY   = .0006303
INCLINATION    = 41.4655
RA_OF_ASC_NODE = 265.6207
ARG_OF_PERICENTER = 213.2010
MEAN_ANOMALY   = 146.8433

EPHEMERIS_TYPE = 0
CLASSIFICATION_TYPE = U
NORAD_CAT_ID   = 64786
ELEMENT_SET_NO = 999
REV_AT_EPOCH   = 27570
BSTAR          = .27649E-3
MEAN_MOTION_DOT = .22938E-3
MEAN_MOTION_DDOT = 0

CCSDS_OMM_VERS = 2.0
CREATION_DATE  = 
ORIGINATOR     = 

OBJECT_NAME    = DRAGON CRS-33
OBJECT_ID      = 2025-186A
CENTER_NAME    = EARTH
REF_FRAME      = TEME
TIME_SYSTEM    = UTC
MEAN_ELEMENT_THEORY = SGP/SGP4

EPOCH          = 2026-02-28T05:16:33.593664
MEAN_MOTION    = 15.48355484
ECCENTRICITY   = .00083063
INCLINATION    = 51.6325
RA_OF_ASC_NODE = 119.1716
ARG_OF_PERICENTER = 141.5469
MEAN_ANOMALY   = 218.6112

EPHEMERIS_TYPE = 0
CLASSIFICATION_TYPE = U
NORAD_CAT_ID   = 65304
ELEMENT_SET_NO = 999
REV_AT_EPOCH   = 11
BSTAR          = .19674511E-3
MEAN_MOTION_DOT = .10172E-3
MEAN_MOTION_DDOT = 0

CCSDS_OMM_VERS = 2.0
CREATION_DATE  = 
ORIGINATOR     = 

OBJECT_NAME    = PROGRESS-MS 32
OBJECT_ID      = 2025-204A
CENTER_NAME    = EARTH
REF_FRAME      = TEME
TIME_SYSTEM    = UTC
MEAN_ELEMENT_THEORY = SGP/SGP4

EPOCH          = 2026-02-28T09:55:22.865376
MEAN_MOTION    = 15.48358440
ECCENTRICITY   = .0008299
INCLINATION    = 51.6325
RA_OF_ASC_NODE = 118.2146
ARG_OF_PERICENTER = 142.1568
MEAN_ANOMALY   = 218.0005

EPHEMERIS_TYPE = 0
CLASSIFICATION_TYPE = U
NORAD_CAT_ID   = 65586
ELEMENT_SET_NO = 999
REV_AT_EPOCH   = 55464
BSTAR          = .18003E-3
MEAN_MOTION_DOT = .927E-4
MEAN_MOTION_DDOT = 0

CCSDS_OMM_VERS = 2.0
CREATION_DATE  = 
ORIGINATOR     = 

OBJECT_NAME    = CYGNUS NG-23
OBJECT_ID      = 2025-208A
CENTER_NAME    = EARTH
REF_FRAME      = TEME
TIME_SYSTEM    = UTC
MEAN_ELEMENT_THEORY = SGP/SGP4

EPOCH          = 2026-02-28T09:55:22.865376
MEAN_MOTION    = 15.48358440
ECCENTRICITY   = .0008299
INCLINATION    = 51.6325
RA_OF_ASC_NODE = 118.2146
ARG_OF_PERICENTER = 142.1568
MEAN_ANOMALY   = 218.0005

EPHEMERIS_TYPE = 0
CLASSIFICATION_TYPE = U
NORAD_CAT_ID   = 65616
ELEMENT_SET_NO = 999
REV_AT_EPOCH   = 55465
BSTAR          = .18003E-3
MEAN_MOTION_DOT = .927E-4
MEAN_MOTION_DDOT = 0

