ISS (ZARYA)             
1 25544U 98067A   26059.41345909  .00009270  00000+0  18003-3 0  9999
2 25544  51.6325 118.2146 0008299 142.1568 218.0005 15.48358440554891
POISK                   
1 36086U 09060A   26059.41345909  .00009270  00000+0  18003-3 0  9997
2 36086  51.6325 118.2146 0008299 142.1568 218.0005 15.48358440554580
CSS (TIANHE)            
1 48274U 21035A   26059.24332133  .00022938  00000+0  27649-3 0  9993
2 48274  41.4655 265.6207 0006303 213.2010 146.8433 15.60219288276131
ISS (NAUKA)             
1 49044U 21066A   26059.41345909  .00009270  00000+0  18003-3 0  9995
2 49044  51.6325 118.2146 0008299 142.1568 218.0005 15.48358440554599
CSS (WENTIAN)           
1 53239U 22085A   26059.24332133  .00022938  00000+0  27649-3 0  9996
2 53239  41.4655 265.6207 0006303 213.2010 146.8433 15.60219288275722
CSS (MENGTIAN)          
1 54216U 22143A   26059.24332133  .00022938  00000+0  27649-3 0  9997
2 54216  41.4655 265.6207 0006303 213.2010 146.8433 15.60219288275694
PROGRESS-MS 31          
1 64751U 25146A   26059.41345909  .00009270  00000+0  18003-3 0  9990
2 64751  51.6325 118.2146 0008299 142.1568 218.0005 15.48358440554603
TIANZHOU-9              
1 64786U 25149A   26059.24332133  .00022938  00000+0  27649-3 0  9999
2 64786  41.4655 265.6207 0006303 213.2010 146.8433 15.60219288275709
DRAGON CRS-33           
1 65304U 25186A   26059.21983326  .00010172  00000+0  19675-3 0  9997
2 65304  51.6325 119.1716 0008306 141.5469 218.6112 15.48355484   115
PROGRESS-MS 32          
1 65586U 25204A   26059.41345909  .00009270  00000+0  18003-3 0  9992
2 65586  51.6325 118.2146 0008299 142.1568 218.0005 15.48358440554644
CYGNUS NG-23            
1 65616U 25208A   26059.41345909  .00009270  00000+0  18003-3 0  9990
2 65616  51.6325 118.2146 0008299 142.1568 218.0005 15.48358440554659
